{"type": "FeatureCollection", "features": [ {"type": "Feature", "properties": {"norad_id": 62339, "name": "GPS BIII-7  (PRN 01)", "group": "gps-ops", "lat": -46.08379805870063, "lon": -151.04987639267463, "alt_km": 20193.368616206768, "timestamp": "2025-12-04T05:42:43.632175+00:00", "meta": {"OBJECT_NAME": "GPS BIII-7  (PRN 01)", "OBJECT_ID": "2024-242A", "EPOCH": "2025-12-02T03:41:48.732000", "MEAN_MOTION": 2.00567227, "ECCENTRICITY": 0.0011644, "INCLINATION": 54.9268, "RA_OF_ASC_NODE": 342.1698, "ARG_OF_PERICENTER": 343.3913, "MEAN_ANOMALY": 193.6606, "EPHEMERIS_TYPE": 0, "CLASSIFICATION_TYPE": "U", "NORAD_CAT_ID": 62339, "ELEMENT_SET_NO": 999, "REV_AT_EPOCH": 730, "BSTAR": 0, "MEAN_MOTION_DOT": -6.2e-07, "MEAN_MOTION_DDOT": 0}, "tle": {"line1": "1 62339U 24242A   25336.15403625 -.00000062  00000+0  00000+0 0  9999", "line2": "2 62339  54.9268 342.1698 0011644 343.3913 193.6606  2.00567227  7306"}}, "geometry": {"type": "Point", "coordinates": [-151.04987639267463, -46.08379805870063]}}, {"type": "Feature", "properties": {"norad_id": 64202, "name": "GPS BIII-8  (PRN 21)", "group": "gps-ops", "lat": 51.10390177449668, "lon": 98.80346467287231, "alt_km": 20184.148572249447, "timestamp": "2025-12-04T05:42:43.632187+00:00", "meta": {"OBJECT_NAME": "GPS BIII-8  (PRN 21)", "OBJECT_ID": "2025-116A", "EPOCH": "2025-12-03T06:10:25.375296", "MEAN_MOTION": 2.00558491, "ECCENTRICITY": 0.0004994, "INCLINATION": 55.0986, "RA_OF_ASC_NODE": 39.0246, "ARG_OF_PERICENTER": 306.9577, "MEAN_ANOMALY": 136.4728, "EPHEMERIS_TYPE": 0, "CLASSIFICATION_TYPE": "U", "NORAD_CAT_ID": 64202, "ELEMENT_SET_NO": 999, "REV_AT_EPOCH": 394, "BSTAR": 0, "MEAN_MOTION_DOT": -6.8e-07, "MEAN_MOTION_DDOT": 0}, "tle": {"line1": "1 64202U 25116A   25337.25723814 -.00000068  00000+0  00000+0 0  9994", "line2": "2 64202  55.0986  39.0246 0004994 306.9577 136.4728  2.00558491  3947"}}, "geometry": {"type": "Point", "coordinates": [98.80346467287231, 51.10390177449668]}}]}